ASIASAT 5               
1 35696U 09042A   26095.05181874 -.00000306  00000+0  00000+0 0  9998
2 35696   0.0135 134.7091 0001718 241.6739 296.1407  1.00270809 60972
JCSAT-12 (JCSAT-RA)     
1 35755U 09044A   26095.27195000  .00000000  00000+0  00000+0 0  9996
2 35755   0.0110 192.4319 0000856 176.2318  54.8501  1.00268110 60878
OPTUS D3                
1 35756U 09044B   26095.13415241 -.00000145  00000+0  00000+0 0  9995
2 35756   0.8650 270.0104 0003274 104.1137  23.7294  1.00272311 60835
NIMIQ 5                 
1 35873U 09050A   26095.23147649 -.00000256  00000+0  00000+0 0  9990
2 35873   0.0464  81.6849 0002932 298.7118 183.7693  1.00272282 60614
AMAZONAS 2              
1 35942U 09054A   26095.15114197 -.00000281  00000+0  00000+0 0  9992
2 35942   1.6253  83.9706 0003535 294.2063 168.9036  1.00271665 60453
COMSATBW-1              
1 35943U 09054B   26095.18701929  .00000026  00000+0  00000+0 0  9997
2 35943   0.0634  80.2865 0003882 310.9448 292.5792  1.00272234 60573
NSS-12                  
1 36032U 09058A   26095.18580595  .00000073  00000+0  00000+0 0  9997
2 36032   0.0747  62.1256 0005038 297.7373 317.5154  1.00271692 60189
THOR 6                  
1 36033U 09058B   26095.24568988 -.00000009  00000+0  00000+0 0  9997
2 36033   0.0190 188.6368 0002114 209.3607 243.1535  1.00271246 60273
INTELSAT 14 (IS-14)     
1 36097U 09064A   26095.16561252 -.00000272  00000+0  00000+0 0  9994
2 36097   0.0452  70.8294 0002577 313.5318 183.7367  1.00272613 59879
ATLAS 5 CENTAUR R/B     
1 36098U 09064B   26094.87643987 -.00000071  00000+0  00000+0 0  9995
2 36098  22.0005  78.1179 5631154 218.7570  92.3740  1.76308451105405
EUTELSAT 36B            
1 36101U 09065A   26095.18450595  .00000113  00000+0  00000+0 0  9993
2 36101   0.3074  79.0000 0006007 300.3840 291.0112  1.00273722 59974
INTELSAT 15 (IS-15)     
1 36106U 09067A   26095.12011235  .00000000  00000+0  00000+0 0  9993
2 36106   0.0164 219.9402 0002519 171.1396 290.7380  1.00269913 40498
BLOCK DM-SL R/B         
1 36107U 09067B   26094.91785728 -.00000091  00000+0  00000+0 0  9996
2 36107  12.6992 312.5920 4430624 145.8146 241.8859  1.73594601103649
WGS F3 (USA 211)        
1 36108U 09068A   26095.14879912  .00000065  00000+0  00000+0 0  9993
2 36108   0.4066  85.6716 0000818 323.8394  67.4916  1.00271739 45864
DELTA 4 R/B             
1 36109U 09068B   26094.98170355 -.00000088  00000+0  40001-3 0  9995
2 36109  24.4426 309.6058 8168509 175.8143 356.4130  1.19263877 70823
DIRECTV 12              
1 36131U 09075A   26095.13933712 -.00000103  00000+0  00000+0 0  9999
2 36131   0.0296 353.7039 0000503  51.9570  95.2181  1.00272201 45828
BEIDOU-2 G1             
1 36287U 10001A   26095.33507431 -.00000277  00000+0  00000+0 0  9991
2 36287   4.1235  60.6012 0004185 294.3028  99.8275  1.00270578 59446
BREEZE-M R/B            
1 36359U 10002B   26095.10303894 -.00000086  00000+0  00000+0 0  9992
2 36359  10.7750  37.1065 0212225 253.3704 300.9353  1.04039882 61463
SDO                     
1 36395U 10005A   26093.00669913 -.00000054  00000+0  00000+0 0  9994
2 36395  34.4952  87.4755 0000578  22.7728 341.7255  1.00274249 59313
INTELSAT 16 (IS-16)     
1 36397U 10006A   26095.14161852  .00000000  00000+0  00000+0 0  9993
2 36397   0.0121 219.8208 0002161 181.8726 126.5381  1.00269963 58923
BREEZE-M DEB [TANK]     
1 36399U 10006C   26093.70765502 -.00000111  00000+0  59751-3 0  9992
2 36399  46.3514 355.7035 7196215 191.4455 132.8650  2.26678384132279
EWS-G2 (GOES 15)        
1 36411U 10008A   26095.11577899  .00000024  00000+0  00000+0 0  9997
2 36411   1.0857  84.2910 0003366  17.7221 196.3649  1.00271739 58900
ECHOSTAR 14             
1 36499U 10010A   26095.12197449  .00000001  00000+0  00000+0 0  9991
2 36499   0.0173 212.2980 0001868 173.2773  92.8584  1.00272861 45823
SES-1                   
1 36516U 10016A   26095.22584610 -.00000113  00000+0  00000+0 0  9993
2 36516   0.0273 284.4363 0002632  93.1985 156.1926  1.00272985 58303
ASTRA 3B                
1 36581U 10021A   26095.21711404  .00000139  00000+0  00000+0 0  9990
2 36581   1.2807  84.4212 0003604 306.6544 264.0918  1.00272757 58133
COMSATBW-2              
1 36582U 10021B   26095.22267174  .00000089  00000+0  00000+0 0  9996
2 36582   0.0198 232.6635 0002733 155.4006 258.8201  1.00269107 58226
BREEZE-M R/B            
1 36587U 09075B   26094.75631203  .00000099  00000+0  00000+0 0  9994
2 36587  21.6469 326.6443 5762199  87.1965  25.5266  1.99403640115641
BEIDOU-2 G3             
1 36590U 10024A   26095.04765872 -.00000134  00000+0  00000+0 0  9998
2 36590   4.3432  61.8008 0008587 331.3206 257.0699  1.00272801 58035
BADR-5                  
1 36592U 10025A   26095.21711404  .00000146  00000+0  00000+0 0  9994
2 36592   0.0465 121.4870 0002348 300.2538 235.9375  1.00269695 52484
COMS 1                  
1 36744U 10032A   26095.27125667 -.00000341  00000+0  00000+0 0  9995
2 36744   4.6166  76.3679 0001336 324.7451  18.2685  1.00272253 50351
ARABSAT-5A              
1 36745U 10032B   26095.03795200  .00000154  00000+0  00000+0 0  9997
2 36745   0.0829  53.0220 0003920 351.3486 193.1022  1.00273501 57911
ECHOSTAR 15             
1 36792U 10034A   26095.12197449  .00000000  00000+0  00000+0 0  9992
2 36792   0.0491  73.9908 0002041 312.0633  92.4711  1.00273611 57595
BEIDOU-2 IGSO-1         
1 36828U 10036A   26086.63883915 -.00000150  00000+0  00000+0 0  9997
2 36828  54.2909 163.6978 0057461 222.7538 133.1758  1.00295665 57273
NILESAT 201             
1 36830U 10037A   26095.24447655 -.00000056  00000+0  00000+0 0  9990
2 36830   0.0336 128.3089 0002941 265.1816 241.0667  1.00272358 57646
RASCOM-QAF 1R           
1 36831U 10037B   26095.22822667  .00000020  00000+0  00000+0 0  9999
2 36831   0.0302 117.6752 0006452 252.0884 268.8091  1.00271867 57573
AEHF-1 (USA 214)        
1 36868U 10039A   26095.10910564  .00000151  00000+0  00000+0 0  9997
2 36868   8.0388  68.9923 0004458 307.3666 246.3512  1.00267245 52927
ZHONGXING-6A            
1 37150U 10042A   26095.21371273  .00000068  00000+0  00000+0 0  9993
2 37150   4.0381  78.1209 0004036 264.9098 125.2542  0.99702959 57151
SL-6 R/B(2)             
1 37171U 10049B   26094.70000370 -.00000932  00000+0  54241-3 0  9994
2 37171  61.8378 189.3764 7332333 255.7689  19.7916  2.04440098115559
XM-5                    
1 37185U 10053A   26095.22298609 -.00000022  00000+0  00000+0 0  9996
2 37185   0.0675 269.4406 0003944 267.3159 341.8490  1.00272698 56755
BSAT-3B                 
1 37207U 10056B   26095.01311737 -.00000349  00000+0  00000+0 0  9991
2 37207   0.0260 174.3328 0000602 113.3594  20.1928  1.00272269 51367
BEIDOU-2 G4             
1 37210U 10057A   26095.25585002 -.00000110  00000+0  00000+0 0  9996
2 37210   3.4665  69.3575 0007213 215.5538 160.7597  1.00271647 56561
MERIDIAN 3              
1 37212U 10058A   26093.05840963  .00000003  00000+0  00000+0 0  9995
2 37212  63.4559  99.9043 6793013 261.1797  22.5916  2.00594474112953
SKYTERRA 1              
1 37218U 10061A   26094.94056404 -.00000116  00000+0  00000+0 0  9999
2 37218   4.9705  50.8880 0002531   3.2527  16.3868  1.00272041 56467
DELTA 4 R/B             
1 37233U 10063B   26094.00225103 -.00000216  00000+0  00000+0 0  9990
2 37233   9.2286  82.7234 0210428  63.9822 298.2392  1.04040171 25538
HYLAS 1                 
1 37237U 10065A   26095.22267174  .00000093  00000+0  00000+0 0  9997
2 37237   5.4589  73.8976 0001922 289.1833 284.4091  1.00272695  6155
INTELSAT 17 (IS-17)     
1 37238U 10065B   26095.11629900  .00000000  00000+0  00000+0 0  9993
2 37238   0.0128 186.3273 0002452 198.5564 276.3992  1.00271590 52513
BEIDOU-2 IGSO-2         
1 37256U 10068A   26086.44836399 -.00000175  00000+0  00000+0 0  9998
2 37256  47.6922 272.8379 0048070 212.2935 326.6285  1.00251076 55976
EUTELSAT KA-SAT 9A      
1 37258U 10069A   26095.22822667  .00000062  00000+0  00000+0 0  9994
2 37258   0.0603   1.7306 0003650 138.2956 144.6529  1.00269409 43279
HISPASAT 30W-5          
1 37264U 10070A   26095.23988319 -.00000215  00000+0  00000+0 0  9992
2 37264   0.0400 113.2521 0004263 290.1237 206.5422  1.00272317 52452
KOREASAT 6              
1 37265U 10070B   26095.30427376 -.00000110  00000+0  00000+0 0  9996
2 37265   0.0022 149.3012 0002339 232.3433  81.3916  1.00272400 56045
ELEKTRO-L 1 (GOMS 2)    
1 37344U 11001A   26094.87316764 -.00000214  00000+0  00000+0 0  9993
2 37344   9.5214  55.2363 0004020  14.7639 356.0477  1.00164929 55750
FREGAT R/B              
1 37345U 11001B   26095.06897881 -.00000031  00000+0  00000+0 0  9997
2 37345  10.1031  43.0355 0151325  68.9923 294.6512  1.02799300 59659
BEIDOU-2 IGSO-3         
1 37384U 11013A   26095.26752999 -.00000186  00000+0  00000+0 0  9996
2 37384  62.3143  40.8400 0034292 189.3814 167.2909  1.00285678 54927
INTELSAT 28 (IS-28)     
1 37392U 11016A   26095.22792115 -.00000223  00000+0  00000+0 0  9990
2 37392   1.6176  83.5051 0004539 298.2809 222.0920  1.00271878 52556
YAHSAT 1A               
1 37393U 11016B   26095.18493928  .00000102  00000+0  00000+0 0  9991
2 37393   0.0134 193.7063 0003029 194.3421 284.5090  1.00271671 41673
MERIDIAN 4              
1 37398U 11018A   26086.29615466  .00018792  00000+0  21546-2 0  9998
2 37398  62.0768  86.8592 7509616 264.8296  14.5762  2.02052290109120
SBIRS GEO-1 (USA 230)   
1 37481U 11019A   26095.04219869  .00000102  00000+0  00000+0 0  9997
2 37481   4.3764  53.1094 0002233 317.6937 249.5377  1.00271913 54669
TELSTAR 14R             
1 37602U 11021A   26095.08365726  .00000000  00000+0  00000+0 0  9990
2 37602   0.0163 216.0603 0002418 164.5611 139.8791  1.00269093 55106
GSAT-8                  
1 37605U 11022A   26095.18545928  .00000087  00000+0  00000+0 0  9994
2 37605   1.9425  82.6993 0005641 224.8405   7.7690  1.00272068 52486
